ONEWEB-0012             
1 44057U 19010A   26188.08836596  .00000061  00000+0  12661-3 0  9996
2 44057  87.9078 224.8324 0001681  89.5424 270.5900 13.16595858354189
ONEWEB-0010             
1 44058U 19010B   26188.03771446  .00000020  00000+0  17808-4 0  9998
2 44058  87.9083 224.8383 0002194 103.3082 256.8294 13.16593237354223
ONEWEB-0008             
1 44059U 19010C   26188.06304311 -.00000042  00000+0 -14293-3 0  9995
2 44059  87.9078 224.8288 0002253  89.4573 270.6816 13.16593162354341
ONEWEB-0007             
1 44060U 19010D   26187.65760683  .00000028  00000+0  39582-4 0  9990
2 44060  87.8993 255.3419 0001819 104.8614 255.2718 13.15548298353931
ONEWEB-0006             
1 44061U 19010E   26188.72637160  .00000057  00000+0  11705-3 0  9991
2 44061  87.9003 255.0951 0002208  98.3014 261.8367 13.15550461354127
ONEWEB-0011             
1 44062U 19010F   26188.69467321  .00000023  00000+0  28303-4 0  9994
2 44062  87.8999 255.1118 0002280  99.3548 260.7840 13.15549038354111
ONEWEB-0013             
1 45131U 20008A   26188.03684467 -.00000456  00000+0 -13603-2 0  9998
2 45131  87.8506  48.8188 0001322  49.5148 310.6094 13.09462652308660
ONEWEB-0017             
1 45132U 20008B   26188.00544680  .00000370  00000+0  10221-2 0  9994
2 45132  87.8818  32.3194 0001953  91.2994 268.8357 13.10377399310546
ONEWEB-0020             
1 45133U 20008C   26187.97485892 -.00000590  00000+0 -17279-2 0  9995
2 45133  87.8819  32.3246 0001844  85.6576 274.4763 13.10370506310938
ONEWEB-0021             
1 45134U 20008D   26187.99012458 -.00000454  00000+0 -13369-2 0  9997
2 45134  87.8820  32.3368 0001723  87.6697 272.4628 13.10373897311247
ONEWEB-0023             
1 45136U 20008F   26187.92480945  .00000006  00000+0 -18729-4 0  9991
2 45136  87.8826  32.3327 0001871  79.6150 280.5188 13.10378879310660
ONEWEB-0024             
1 45137U 20008G   26187.97329092 -.00000508  00000+0 -14926-2 0  9993
2 45137  87.8827  32.3165 0001824  88.2814 271.8523 13.10369585310832
ONEWEB-0025             
1 45138U 20008H   26187.97302004 -.00000518  00000+0 -15201-2 0  9996
2 45138  87.8827  32.3065 0002273  83.1207 277.0179 13.10370099311165
ONEWEB-0026             
1 45139U 20008J   26188.75869632  .00000189  00000+0  49623-3 0  9997
2 45139  87.8880  16.9716 0001988  92.2902 267.8453 13.11414661313801
ONEWEB-0028             
1 45140U 20008K   26188.50522636  .00000404  00000+0  11048-2 0  9991
2 45140  87.8875  17.0295 0001447  73.1523 286.9763 13.11417136311284
ONEWEB-0032             
1 45141U 20008L   26188.00727360  .00000405  00000+0  11232-2 0  9994
2 45141  87.8820  32.3208 0001661  70.2799 289.8507 13.10375687310897
ONEWEB-0033             
1 45142U 20008M   26187.98164041 -.00000643  00000+0 -18778-2 0  9990
2 45142  87.8816  32.3324 0002103  98.9742 261.1623 13.10372028310808
ONEWEB-0035             
1 45143U 20008N   26188.00218640 -.00001758  00000+0 -50749-2 0  9992
2 45143  87.8819  32.3213 0001938  87.8333 272.3017 13.10355539310536
ONEWEB-0036             
1 45144U 20008P   26188.51433489 -.00000606  00000+0 -17738-2 0  9991
2 45144  87.8831  32.2356 0001749  79.6453 280.4871 13.10367803311020
ONEWEB-0038             
1 45145U 20008Q   26188.00603193 -.00000336  00000+0 -98254-3 0  9990
2 45145  87.8894  17.1332 0001350 150.4353 209.6851 13.11415121312920
ONEWEB-0039             
1 45146U 20008R   26187.98504436 -.00000320  00000+0 -95344-3 0  9997
2 45146  87.8813  32.3226 0001368  71.8892 288.2385 13.10372016310754
ONEWEB-0040             
1 45147U 20008S   26188.51274426 -.00000583  00000+0 -17058-2 0  9997
2 45147  87.8814  32.2279 0001959  77.7458 282.3889 13.10370338310526
ONEWEB-0043             
1 45149U 20008U   26188.51459646 -.00000616  00000+0 -18004-2 0  9997
2 45149  87.8823  32.2165 0001454  73.0042 287.1244 13.10366163310844
ONEWEB-0044             
1 45150U 20008V   26188.00884559  .00000488  00000+0  13612-2 0  9993
2 45150  87.8828  32.3184 0001798  80.6655 279.4676 13.10376751311071
ONEWEB-0045             
1 45151U 20008W   26188.76377961 -.00000046  00000+0 -16651-3 0  9990
2 45151  87.8889  16.9638 0001715  89.1752 270.9572 13.11414786313101
ONEWEB-0047             
1 45152U 20008X   26188.00187959  .00000139  00000+0  36126-3 0  9994
2 45152  87.8828  32.3193 0001812  92.9107 267.2228 13.10375864310798
ONEWEB-0048             
1 45153U 20008Y   26187.99691813 -.00000330  00000+0 -98266-3 0  9999
2 45153  87.8821  32.3396 0001829  88.5028 271.6309 13.10375907310403
ONEWEB-0049             
1 45154U 20008Z   26188.00017449  .00000088  00000+0  21636-3 0  9995
2 45154  87.8818  32.3280 0002076  75.2184 284.9173 13.10374759310627
ONEWEB-0051             
1 45155U 20008AA  26188.76209146  .00000080  00000+0  18958-3 0  9991
2 45155  87.8879  16.9699 0001866  90.2320 269.9022 13.11415308313785
ONEWEB-0052             
1 45156U 20008AB  26187.94450524  .00000815  00000+0  22988-2 0  9992
2 45156  87.8821  32.3263 0001951  76.2835 283.8509 13.10375103310523
